{"fetched_at":"2026-03-29T16:36:15Z","count":15609,"tles":[{"name":"STARLINK-33752","line1":"1 63580U 25076M   26087.81236441  .00042187  00000+0  15307-2 0  9993","line2":"2 63580  43.0039 213.8203 0002753 279.8647  80.1894 15.27645440 54751","category":"Starlink"}]}