{
  "norad_id": 63580,
  "name": "STARLINK-33752",
  "history": [
    {
      "epoch": "2026-03-28T19:29:48.285024",
      "apogee_km": 484.74253160084754,
      "perigee_km": 480.9637726646597,
      "latitude_deg": -7.24232845624054,
      "longitude_deg": -104.01301663997583,
      "semi_major_axis_km": 6860.990152132754,
      "eccentricity": 0.00027538,
      "inclination_deg": 43.0039,
      "raan_deg": 213.8203,
      "arg_perigee_deg": 279.8647,
      "mean_anomaly_deg": 80.1894,
      "mean_motion_rev_day": 15.2764544
    }
  ]
}